$$SOE
2460721.500000000, A.D. 2025-Feb-15 00:00:00.0000, -9.305466550550310E+07, 3.368658862380010E+08, 7.017875467689654E+07,
2460728.500000000, A.D. 2025-Feb-22 00:00:00.0000, -1.032356808366483E+08, 3.331712824567910E+08, 7.580536547887026E+07,
2460735.500000000, A.D. 2025-Mar-01 00:00:00.0000, -1.133064326296081E+08, 3.291211610811169E+08, 8.135103571359740E+07,
2460742.500000000, A.D. 2025-Mar-08 00:00:00.0000, -1.232566964701953E+08, 3.247213638191310E+08, 8.681022216736008E+07,
2460749.500000000, A.D. 2025-Mar-15 00:00:00.0000, -1.330765019410305E+08, 3.199781571044925E+08, 9.217754883856997E+07,
2460756.500000000, A.D. 2025-Mar-22 00:00:00.0000, -1.427561502662714E+08, 3.148982132370669E+08, 9.744781499479838E+07,
2460763.500000000, A.D. 2025-Mar-29 00:00:00.0000, -1.522862293546630E+08, 3.094885885144282E+08, 1.026160021815787E+08,
2460770.500000000, A.D. 2025-Apr-05 00:00:00.0000, -1.616576258942559E+08, 3.037567016116822E+08, 1.076772804006626E+08,
2460777.500000000, A.D. 2025-Apr-12 00:00:00.0000, -1.708615364084127E+08, 2.977103124385445E+08, 1.126270136408366E+08,
2460784.500000000, A.D. 2025-Apr-19 00:00:00.0000, -1.798894774505921E+08, 2.913575007103949E+08, 1.174607647072997E+08,
2460791.500000000, A.D. 2025-Apr-26 00:00:00.0000, -1.887332946676016E+08, 2.847066441446937E+08, 1.221742993137353E+08,
2460798.500000000, A.D. 2025-May-03 00:00:00.0000, -1.973851706282113E+08, 2.777663964141383E+08, 1.267635894391268E+08,
2460805.500000000, A.D. 2025-May-10 00:00:00.0000, -2.058376314068840E+08, 2.705456649736927E+08, 1.312248159628831E+08,
2460812.500000000, A.D. 2025-May-17 00:00:00.0000, -2.140835519113069E+08, 2.630535888239539E+08, 1.355543705910177E+08,
2460819.500000000, A.D. 2025-May-24 00:00:00.0000, -2.221161598116744E+08, 2.552995162540179E+08, 1.397488570758809E+08,
2460826.500000000, A.D. 2025-May-31 00:00:00.0000, -2.299290376918241E+08, 2.472929829658612E+08, 1.438050917423964E+08,
2460833.500000000, A.D. 2025-Jun-07 00:00:00.0000, -2.375161238674161E+08, 2.390436918693962E+08, 1.477201034850728E+08,
2460840.500000000, A.D. 2025-Jun-14 00:00:00.0000, -2.448717142856665E+08, 2.305614939610862E+08, 1.514911334314156E+08,
2460847.500000000, A.D. 2025-Jun-21 00:00:00.0000, -2.519904643391297E+08, 2.218563670883440E+08, 1.551156339265456E+08,
2460854.500000000, A.D. 2025-Jun-28 00:00:00.0000, -2.588673875157551E+08, 2.129383944243340E+08, 1.585912667266352E+08,
2460861.500000000, A.D. 2025-Jul-05 00:00:00.0000, -2.654978524623751E+08, 2.038177448626928E+08, 1.619159007516233E+08,
2460868.500000000, A.D. 2025-Jul-12 00:00:00.0000, -2.718775797144169E+08, 1.945046545784499E+08, 1.650876094797835E+08,
2460875.500000000, A.D. 2025-Jul-19 00:00:00.0000, -2.780026379614333E+08, 1.850094092236995E+08, 1.681046679567966E+08,
2460882.500000000, A.D. 2025-Jul-26 00:00:00.0000, -2.838694396983859E+08, 1.753423267362971E+08, 1.709655494313522E+08,
2460889.500000000, A.D. 2025-Aug-02 00:00:00.0000, -2.894747362580394E+08, 1.655137408113273E+08, 1.736689216490013E+08,
2460896.500000000, A.D. 2025-Aug-09 00:00:00.0000, -2.948156122616311E+08, 1.555339850428229E+08, 1.762136428366298E+08,
2460903.500000000, A.D. 2025-Aug-16 00:00:00.0000, -2.998894794705811E+08, 1.454133776888363E+08, 1.785987574003520E+08,
2460910.500000000, A.D. 2025-Aug-23 00:00:00.0000, -3.046940698049334E+08, 1.351622070870543E+08, 1.808234913452770E+08,
2460917.500000000, A.D. 2025-Aug-30 00:00:00.0000, -3.092274272562454E+08, 1.247907184400942E+08, 1.828872474778974E+08,
2460924.500000000, A.D. 2025-Sep-06 00:00:00.0000, -3.134879001687297E+08, 1.143091029703984E+08, 1.847896006347189E+08,
2460931.500000000, A.D. 2025-Sep-13 00:00:00.0000, -3.174741356145635E+08, 1.037274869581811E+08, 1.865302929200373E+08,
2460938.500000000, A.D. 2025-Sep-20 00:00:00.0000, -3.211850726405579E+08, 9.305591901277667E+07, 1.881092285485169E+08,
2460945.500000000, A.D. 2025-Sep-27 00:00:00.0000, -3.246199333725591E+08, 8.230435867762946E+07, 1.895264684740943E+08,
2460952.500000000, A.D. 2025-Oct-04 00:00:00.0000, -3.277782140401775E+08, 7.148266689088385E+07, 1.907822250588478E+08,
2460959.500000000, A.D. 2025-Oct-11 00:00:00.0000, -3.306596763406423E+08, 6.060059734141478E+07, 1.918768567653102E+08,
2460966.500000000, A.D. 2025-Oct-18 00:00:00.0000, -3.332643388984669E+08, 4.966778842848320E+07, 1.928108628469416E+08,
2460973.500000000, A.D. 2025-Oct-25 00:00:00.0000, -3.355924687175970E+08, 3.869375581617408E+07, 1.935848780439499E+08,
2460980.500000000, A.D. 2025-Nov-01 00:00:00.0000, -3.376445726198066E+08, 2.768788557547390E+07, 1.941996672981420E+08,
2460987.500000000, A.D. 2025-Nov-08 00:00:00.0000, -3.394213886654955E+08, 1.665942785715906E+07, 1.946561204950966E+08,
2460994.500000000, A.D. 2025-Nov-15 00:00:00.0000, -3.409238774376772E+08, 5.617491009083249E+06, 1.949552472286335E+08,
2461001.500000000, A.D. 2025-Nov-22 00:00:00.0000, -3.421532128132504E+08, -5.428963671116546E+06, 1.950981715822040E+08,
2461008.500000000, A.D. 2025-Nov-29 00:00:00.0000, -3.431107723993783E+08, -1.647112544190578E+07, 1.950861270475225E+08,
2461015.500000000, A.D. 2025-Dec-06 00:00:00.0000, -3.437981299351268E+08, -2.750033604704773E+07, 1.949204517912455E+08,
2461022.500000000, A.D. 2025-Dec-13 00:00:00.0000, -3.442170492462565E+08, -3.850809346594495E+07, 1.946025839673735E+08,
2461029.500000000, A.D. 2025-Dec-20 00:00:00.0000, -3.443694762780022E+08, -4.948605648673113E+07, 1.941340568485561E+08,
2461036.500000000, A.D. 2025-Dec-27 00:00:00.0000, -3.442575302925544E+08, -6.042604753590527E+07, 1.935164940912543E+08,
2461043.500000000, A.D. 2026-Jan-03 00:00:00.0000, -3.438834957017930E+08, -7.132005440800083E+07, 1.927516052218655E+08,
2461050.500000000, A.D. 2026-Jan-10 00:00:00.0000, -3.432498144368438E+08, -8.216023160208035E+07, 1.918411812832722E+08,
2461057.500000000, A.D. 2026-Jan-17 00:00:00.0000, -3.423590786317077E+08, -9.293890138254648E+07, 1.907870906176249E+08,
2461064.500000000, A.D. 2026-Jan-24 00:00:00.0000, -3.412140235506326E+08, -1.036485545663291E+08, 1.895912747831693E+08,
2461071.500000000, A.D. 2026-Jan-31 00:00:00.0000, -3.398175207415888E+08, -1.142818510680385E+08, 1.882557446043083E+08,
2461078.500000000, A.D. 2026-Feb-07 00:00:00.0000, -3.381725713587829E+08, -1.248316202840048E+08, 1.867825763458487E+08,
2461085.500000000, A.D. 2026-Feb-14 00:00:00.0000, -3.362822994043886E+08, -1.352908613532358E+08, 1.851739079876646E+08,
2461092.500000000, A.D. 2026-Feb-21 00:00:00.0000, -3.341499445038949E+08, -1.456527427400275E+08, 1.834319356113648E+08,
2461099.500000000, A.D. 2026-Feb-28 00:00:00.0000, -3.317788553003810E+08, -1.559106000058356E+08, 1.815589100917938E+08,
2461106.500000000, A.D. 2026-Mar-07 00:00:00.0000, -3.291724855259679E+08, -1.660579337417522E+08, 1.795571341218202E+08,
2461113.500000000, A.D. 2026-Mar-14 00:00:00.0000, -3.263343899751462E+08, -1.760884100152402E+08, 1.774289591253657E+08,
2461120.500000000, A.D. 2026-Mar-21 00:00:00.0000, -3.232682185969152E+08, -1.859958604511753E+08, 1.751767821314318E+08,
2461127.500000000, A.D. 2026-Mar-28 00:00:00.0000, -3.199777107125090E+08, -1.957742809347802E+08, 1.728030428745034E+08,
2461134.500000000, A.D. 2026-Apr-04 00:00:00.0000, -3.164666899585531E+08, -2.054178299188290E+08, 1.703102210941494E+08,
2461141.500000000, A.D. 2026-Apr-11 00:00:00.0000, -3.127390596780946E+08, -2.149208267119339E+08, 1.677008339765057E+08,
2461148.500000000, A.D. 2026-Apr-18 00:00:00.0000, -3.087987985967874E+08, -2.242777497701833E+08, 1.649774337201184E+08,
2461155.500000000, A.D. 2026-Apr-25 00:00:00.0000, -3.046499567343758E+08, -2.334832349914022E+08, 1.621426052202096E+08,
2461162.500000000, A.D. 2026-May-02 00:00:00.0000, -3.002966515157790E+08, -2.425320740546036E+08, 1.591989638624700E+08,
2461169.500000000, A.D. 2026-May-09 00:00:00.0000, -2.957430639513616E+08, -2.514192128832426E+08, 1.561491534055635E+08,
2461176.500000000, A.D. 2026-May-16 00:00:00.0000, -2.909934345021923E+08, -2.601397501058234E+08, 1.529958439250954E+08,
2461183.500000000, A.D. 2026-May-23 00:00:00.0000, -2.860520585719602E+08, -2.686889345026517E+08, 1.497417298940746E+08,
2461190.500000000, A.D. 2026-May-30 00:00:00.0000, -2.809232836971034E+08, -2.770621611297301E+08, 1.463895286128462E+08,
2461197.500000000, A.D. 2026-Jun-06 00:00:00.0000, -2.756115087459198E+08, -2.852549694043723E+08, 1.429419787469944E+08,
2461204.500000000, A.D. 2026-Jun-13 00:00:00.0000, -2.701211814560463E+08, -2.932630429646093E+08, 1.394018386514075E+08,
2461211.500000000, A.D. 2026-Jun-20 00:00:00.0000, -2.644567948075199E+08, -3.010822083849991E+08, 1.357718847632909E+08,
2461218.500000000, A.D. 2026-Jun-27 00:00:00.0000, -2.586228839251781E+08, -3.087084330954431E+08, 1.320549101883821E+08,
2461225.500000000, A.D. 2026-Jul-04 00:00:00.0000, -2.526240235052237E+08, -3.161378232839875E+08, 1.282537234125198E+08,
2461232.500000000, A.D. 2026-Jul-11 00:00:00.0000, -2.464648255065572E+08, -3.233666219212746E+08, 1.243711470997998E+08,
2461239.500000000, A.D. 2026-Jul-18 00:00:00.0000, -2.401499370085684E+08, -3.303912068859065E+08, 1.204100169661195E+08,
2461246.500000000, A.D. 2026-Jul-25 00:00:00.0000, -2.336840382046179E+08, -3.372080891920741E+08, 1.163731807210143E+08,
2461253.500000000, A.D. 2026-Aug-01 00:00:00.0000, -2.270718404756192E+08, -3.438139113716571E+08, 1.122634970644611E+08,
2461260.500000000, A.D. 2026-Aug-08 00:00:00.0000, -2.203180843210586E+08, -3.502054460518901E+08, 1.080838347120473E+08,
2461267.500000000, A.D. 2026-Aug-15 00:00:00.0000, -2.134275367258985E+08, -3.563795942843668E+08, 1.038370714446321E+08,
2461274.500000000, A.D. 2026-Aug-22 00:00:00.0000, -2.064049887196154E+08, -3.623333824096420E+08, 9.952609335003698E+07,
2461281.500000000, A.D. 2026-Aug-29 00:00:00.0000, -1.992552554121355E+08, -3.680639588342108E+08, 9.515379435195237E+07,
2461288.500000000, A.D. 2026-Sep-05 00:00:00.0000, -1.919831763686424E+08, -3.735685935919510E+08, 9.072307559316644E+07,
$$EOE